[{"OBJECT_NAME":"STARLINK-3551","OBJECT_ID":"2022-022AM","EPOCH":"2026-03-09T21:23:31.019136","MEAN_MOTION":15.08827359,"ECCENTRICITY":0.00011262,"INCLINATION":53.218,"RA_OF_ASC_NODE":358.2172,"ARG_OF_PERICENTER":110.197,"MEAN_ANOMALY":249.9144,"EPHEMERIS_TYPE":0,"CLASSIFICATION_TYPE":"U","NORAD_CAT_ID":51887,"ELEMENT_SET_NO":999,"REV_AT_EPOCH":22327,"BSTAR":0.00029121949,"MEAN_MOTION_DOT":4.348e-5,"MEAN_MOTION_DDOT":0},{"OBJECT_NAME":"THOR ABLESTAR DEB","OBJECT_ID":"1961-015HM","EPOCH":"2026-03-09T12:53:31.788672","MEAN_MOTION":15.12609006,"ECCENTRICITY":0.0020802,"INCLINATION":66.4912,"RA_OF_ASC_NODE":108.7707,"ARG_OF_PERICENTER":275.236,"MEAN_ANOMALY":209.827,"EPHEMERIS_TYPE":0,"CLASSIFICATION_TYPE":"U","NORAD_CAT_ID":660,"ELEMENT_SET_NO":999,"REV_AT_EPOCH":37032,"BSTAR":0.0020976473,"MEAN_MOTION_DOT":0.00036985,"MEAN_MOTION_DDOT":0}]
